ONEWEB-0180             
1 48213U 21031D   25341.94733249  .00000238  00000+0  60785-3 0  9992
2 48213  87.8992 327.7874 0001588  77.1064 283.0243 13.14503317223094
ONEWEB-0218             
1 48214U 21031E   25341.96953826  .00000066  00000+0  14279-3 0  9996
2 48214  87.8995 327.7834 0002124  60.5883 299.5459 13.14502653223257
ONEWEB-0209             
1 48215U 21031F   25341.95843475  .00000329  00000+0  85234-3 0  9995
2 48215  87.8984 327.8226 0001515  83.9792 276.1510 13.14503383223253
ONEWEB-0198             
1 48216U 21031G   25341.94270840  .00000136  00000+0  33346-3 0  9998
2 48216  87.8983 327.8228 0001609  71.6611 288.4694 13.14504137223362
ONEWEB-0189             
1 48217U 21031H   25341.95525744  .00000283  00000+0  72836-3 0  9996
2 48217  87.8987 327.7942 0001638  73.2823 286.8487 13.14504129223109
ONEWEB-0196             
1 48218U 21031J   25341.93306285 -.00000032  00000+0 -12037-3 0  9993
2 48218  87.8984 327.8129 0001681  82.2038 277.9282 13.14503037223102
ONEWEB-0183             
1 48219U 21031K   25341.98380332 -.00000087  00000+0 -26946-3 0  9998
2 48219  87.8975 327.8075 0001661  92.6699 267.4621 13.14503289223200
ONEWEB-0185             
1 48220U 21031L   25341.93385652 -.00000103  00000+0 -31177-3 0  9996
2 48220  87.8998 327.7925 0001372  90.5443 269.5843 13.14504013223129
ONEWEB-0187             
1 48221U 21031M   25341.91388589 -.00000112  00000+0 -33740-3 0  9995
2 48221  87.8985 327.8387 0001540  82.2755 277.8549 13.14504536223136
ONEWEB-0192             
1 48222U 21031N   25341.96002132  .00000211  00000+0  53596-3 0  9997
2 48222  87.8976 327.8197 0001769  82.9197 277.2134 13.14502628223051
ONEWEB-0219             
1 48223U 21031P   25341.93940078  .00000040  00000+0  73693-4 0  9996
2 48223  87.8982 327.8014 0001509  85.9949 274.1354 13.14503241223251
ONEWEB-0202             
1 48224U 21031Q   25341.92036402 -.00000122  00000+0 -36414-3 0  9995
2 48224  87.8983 327.8173 0001871  63.1699 296.9622 13.14504958223235
ONEWEB-0204             
1 48225U 21031R   25341.95447197  .00000197  00000+0  49637-3 0  9997
2 48225  87.8986 327.8004 0001644  96.5276 263.6041 13.14503719223130
ONEWEB-0205             
1 48226U 21031S   25341.92988530 -.00000035  00000+0 -13009-3 0  9993
2 48226  87.8987 327.7983 0001613  85.8670 274.2644 13.14503863223140
ONEWEB-0206             
1 48227U 21031T   25341.97904461 -.00000046  00000+0 -15925-3 0  9991
2 48227  87.8995 327.7783 0002033  86.8297 273.3065 13.14503126223106
ONEWEB-0182             
1 48228U 21031U   25341.97429159 -.00000007  00000+0 -53213-4 0  9998
2 48228  87.8974 327.8089 0001643  93.2581 266.8737 13.14502844223310
