[{"OBJECT_NAME":"ONEWEB-0180","OBJECT_ID":"2021-031D","EPOCH":"2025-12-07T22:44:09.527136","MEAN_MOTION":13.14503317,"ECCENTRICITY":0.00015882,"INCLINATION":87.8992,"RA_OF_ASC_NODE":327.7874,"ARG_OF_PERICENTER":77.1064,"MEAN_ANOMALY":283.0243,"EPHEMERIS_TYPE":0,"CLASSIFICATION_TYPE":"U","NORAD_CAT_ID":48213,"ELEMENT_SET_NO":999,"REV_AT_EPOCH":22309,"BSTAR":0.00060785317,"MEAN_MOTION_DOT":2.38e-6,"MEAN_MOTION_DDOT":0},{"OBJECT_NAME":"ONEWEB-0218","OBJECT_ID":"2021-031E","EPOCH":"2025-12-07T23:16:08.105664","MEAN_MOTION":13.14502653,"ECCENTRICITY":0.00021242,"INCLINATION":87.8995,"RA_OF_ASC_NODE":327.7834,"ARG_OF_PERICENTER":60.5883,"MEAN_ANOMALY":299.5459,"EPHEMERIS_TYPE":0,"CLASSIFICATION_TYPE":"U","NORAD_CAT_ID":48214,"ELEMENT_SET_NO":999,"REV_AT_EPOCH":22325,"BSTAR":0.00014279465,"MEAN_MOTION_DOT":6.6e-7,"MEAN_MOTION_DDOT":0},{"OBJECT_NAME":"ONEWEB-0209","OBJECT_ID":"2021-031F","EPOCH":"2025-12-07T23:00:08.762400","MEAN_MOTION":13.14503383,"ECCENTRICITY":0.0001515,"INCLINATION":87.8984,"RA_OF_ASC_NODE":327.8226,"ARG_OF_PERICENTER":83.9792,"MEAN_ANOMALY":276.151,"EPHEMERIS_TYPE":0,"CLASSIFICATION_TYPE":"U","NORAD_CAT_ID":48215,"ELEMENT_SET_NO":999,"REV_AT_EPOCH":22325,"BSTAR":0.00085233504,"MEAN_MOTION_DOT":3.29e-6,"MEAN_MOTION_DDOT":0},{"OBJECT_NAME":"ONEWEB-0198","OBJECT_ID":"2021-031G","EPOCH":"2025-12-07T22:37:30.005760","MEAN_MOTION":13.14504137,"ECCENTRICITY":0.00016099,"INCLINATION":87.8983,"RA_OF_ASC_NODE":327.8228,"ARG_OF_PERICENTER":71.6611,"MEAN_ANOMALY":288.4694,"EPHEMERIS_TYPE":0,"CLASSIFICATION_TYPE":"U","NORAD_CAT_ID":48216,"ELEMENT_SET_NO":999,"REV_AT_EPOCH":22336,"BSTAR":0.00033345843,"MEAN_MOTION_DOT":1.36e-6,"MEAN_MOTION_DDOT":0},{"OBJECT_NAME":"ONEWEB-0189","OBJECT_ID":"2021-031H","EPOCH":"2025-12-07T22:55:34.242816","MEAN_MOTION":13.14504129,"ECCENTRICITY":0.00016383,"INCLINATION":87.8987,"RA_OF_ASC_NODE":327.7942,"ARG_OF_PERICENTER":73.2823,"MEAN_ANOMALY":286.8487,"EPHEMERIS_TYPE":0,"CLASSIFICATION_TYPE":"U","NORAD_CAT_ID":48217,"ELEMENT_SET_NO":999,"REV_AT_EPOCH":22310,"BSTAR":0.00072836038,"MEAN_MOTION_DOT":2.83e-6,"MEAN_MOTION_DDOT":0},{"OBJECT_NAME":"ONEWEB-0196","OBJECT_ID":"2021-031J","EPOCH":"2025-12-07T22:23:36.630240","MEAN_MOTION":13.14503037,"ECCENTRICITY":0.00016814,"INCLINATION":87.8984,"RA_OF_ASC_NODE":327.8129,"ARG_OF_PERICENTER":82.2038,"MEAN_ANOMALY":277.9282,"EPHEMERIS_TYPE":0,"CLASSIFICATION_TYPE":"U","NORAD_CAT_ID":48218,"ELEMENT_SET_NO":999,"REV_AT_EPOCH":22310,"BSTAR":-0.00012036751,"MEAN_MOTION_DOT":-3.2e-7,"MEAN_MOTION_DDOT":0},{"OBJECT_NAME":"ONEWEB-0183","OBJECT_ID":"2021-031K","EPOCH":"2025-12-07T23:36:40.606848","MEAN_MOTION":13.14503289,"ECCENTRICITY":0.0001661,"INCLINATION":87.8975,"RA_OF_ASC_NODE":327.8075,"ARG_OF_PERICENTER":92.6699,"MEAN_ANOMALY":267.4621,"EPHEMERIS_TYPE":0,"CLASSIFICATION_TYPE":"U","NORAD_CAT_ID":48219,"ELEMENT_SET_NO":999,"REV_AT_EPOCH":22320,"BSTAR":-0.0002694566,"MEAN_MOTION_DOT":-8.7e-7,"MEAN_MOTION_DDOT":0},{"OBJECT_NAME":"ONEWEB-0185","OBJECT_ID":"2021-031L","EPOCH":"2025-12-07T22:24:45.203328","MEAN_MOTION":13.14504013,"ECCENTRICITY":0.0001372,"INCLINATION":87.8998,"RA_OF_ASC_NODE":327.7925,"ARG_OF_PERICENTER":90.5443,"MEAN_ANOMALY":269.5843,"EPHEMERIS_TYPE":0,"CLASSIFICATION_TYPE":"U","NORAD_CAT_ID":48220,"ELEMENT_SET_NO":999,"REV_AT_EPOCH":22312,"BSTAR":-0.00031177248,"MEAN_MOTION_DOT":-1.03e-6,"MEAN_MOTION_DDOT":0},{"OBJECT_NAME":"ONEWEB-0187","OBJECT_ID":"2021-031M","EPOCH":"2025-12-07T21:55:59.740896","MEAN_MOTION":13.14504536,"ECCENTRICITY":0.00015401,"INCLINATION":87.8985,"RA_OF_ASC_NODE":327.8387,"ARG_OF_PERICENTER":82.2755,"MEAN_ANOMALY":277.8549,"EPHEMERIS_TYPE":0,"CLASSIFICATION_TYPE":"U","NORAD_CAT_ID":48221,"ELEMENT_SET_NO":999,"REV_AT_EPOCH":22313,"BSTAR":-0.00033740494,"MEAN_MOTION_DOT":-1.12e-6,"MEAN_MOTION_DDOT":0},{"OBJECT_NAME":"ONEWEB-0192","OBJECT_ID":"2021-031N","EPOCH":"2025-12-07T23:02:25.842048","MEAN_MOTION":13.14502628,"ECCENTRICITY":0.00017692,"INCLINATION":87.8976,"RA_OF_ASC_NODE":327.8197,"ARG_OF_PERICENTER":82.9197,"MEAN_ANOMALY":277.2134,"EPHEMERIS_TYPE":0,"CLASSIFICATION_TYPE":"U","NORAD_CAT_ID":48222,"ELEMENT_SET_NO":999,"REV_AT_EPOCH":22305,"BSTAR":0.00053596058,"MEAN_MOTION_DOT":2.11e-6,"MEAN_MOTION_DDOT":0},{"OBJECT_NAME":"ONEWEB-0219","OBJECT_ID":"2021-031P","EPOCH":"2025-12-07T22:32:44.227392","MEAN_MOTION":13.14503241,"ECCENTRICITY":0.00015093,"INCLINATION":87.8982,"RA_OF_ASC_NODE":327.8014,"ARG_OF_PERICENTER":85.9949,"MEAN_ANOMALY":274.1354,"EPHEMERIS_TYPE":0,"CLASSIFICATION_TYPE":"U","NORAD_CAT_ID":48223,"ELEMENT_SET_NO":999,"REV_AT_EPOCH":22325,"BSTAR":7.3693022e-5,"MEAN_MOTION_DOT":4.0e-7,"MEAN_MOTION_DDOT":0},{"OBJECT_NAME":"ONEWEB-0202","OBJECT_ID":"2021-031Q","EPOCH":"2025-12-07T22:05:19.451328","MEAN_MOTION":13.14504958,"ECCENTRICITY":0.00018719,"INCLINATION":87.8983,"RA_OF_ASC_NODE":327.8173,"ARG_OF_PERICENTER":63.1699,"MEAN_ANOMALY":296.9622,"EPHEMERIS_TYPE":0,"CLASSIFICATION_TYPE":"U","NORAD_CAT_ID":48224,"ELEMENT_SET_NO":999,"REV_AT_EPOCH":22323,"BSTAR":-0.00036414053,"MEAN_MOTION_DOT":-1.22e-6,"MEAN_MOTION_DDOT":0},{"OBJECT_NAME":"ONEWEB-0204","OBJECT_ID":"2021-031R","EPOCH":"2025-12-07T22:54:26.378208","MEAN_MOTION":13.14503719,"ECCENTRICITY":0.00016448,"INCLINATION":87.8986,"RA_OF_ASC_NODE":327.8004,"ARG_OF_PERICENTER":96.5276,"MEAN_ANOMALY":263.6041,"EPHEMERIS_TYPE":0,"CLASSIFICATION_TYPE":"U","NORAD_CAT_ID":48225,"ELEMENT_SET_NO":999,"REV_AT_EPOCH":22313,"BSTAR":0.00049637099,"MEAN_MOTION_DOT":1.97e-6,"MEAN_MOTION_DDOT":0},{"OBJECT_NAME":"ONEWEB-0205","OBJECT_ID":"2021-031S","EPOCH":"2025-12-07T22:19:02.089920","MEAN_MOTION":13.14503863,"ECCENTRICITY":0.00016132,"INCLINATION":87.8987,"RA_OF_ASC_NODE":327.7983,"ARG_OF_PERICENTER":85.867,"MEAN_ANOMALY":274.2644,"EPHEMERIS_TYPE":0,"CLASSIFICATION_TYPE":"U","NORAD_CAT_ID":48226,"ELEMENT_SET_NO":999,"REV_AT_EPOCH":22314,"BSTAR":-0.00013008937,"MEAN_MOTION_DOT":-3.5e-7,"MEAN_MOTION_DDOT":0},{"OBJECT_NAME":"ONEWEB-0206","OBJECT_ID":"2021-031T","EPOCH":"2025-12-07T23:29:49.454304","MEAN_MOTION":13.14503126,"ECCENTRICITY":0.00020332,"INCLINATION":87.8995,"RA_OF_ASC_NODE":327.7783,"ARG_OF_PERICENTER":86.8297,"MEAN_ANOMALY":273.3065,"EPHEMERIS_TYPE":0,"CLASSIFICATION_TYPE":"U","NORAD_CAT_ID":48227,"ELEMENT_SET_NO":999,"REV_AT_EPOCH":22310,"BSTAR":-0.00015925427,"MEAN_MOTION_DOT":-4.6e-7,"MEAN_MOTION_DDOT":0},{"OBJECT_NAME":"ONEWEB-0182","OBJECT_ID":"2021-031U","EPOCH":"2025-12-07T23:22:58.793376","MEAN_MOTION":13.14502844,"ECCENTRICITY":0.00016435,"INCLINATION":87.8974,"RA_OF_ASC_NODE":327.8089,"ARG_OF_PERICENTER":93.2581,"MEAN_ANOMALY":266.8737,"EPHEMERIS_TYPE":0,"CLASSIFICATION_TYPE":"U","NORAD_CAT_ID":48228,"ELEMENT_SET_NO":999,"REV_AT_EPOCH":22331,"BSTAR":-5.3212959e-5,"MEAN_MOTION_DOT":-7.0e-8,"MEAN_MOTION_DDOT":0}]
